{"type": "FeatureCollection", "features": [ {"type": "Feature", "properties": {"norad_id": 66346, "name": "STARLINK-35482", "group": "last-30-days", "lat": 34.641556751779426, "lon": 164.49880940209658, "alt_km": 415.3140247515821, "timestamp": "2025-12-04T13:51:59.225462+00:00", "meta": {"OBJECT_NAME": "STARLINK-35482", "OBJECT_ID": "2025-253AD", "EPOCH": "2025-12-04T05:36:13.421088", "MEAN_MOTION": 15.49984079, "ECCENTRICITY": 0.0006596, "INCLINATION": 43.0007, "RA_OF_ASC_NODE": 34.3655, "ARG_OF_PERICENTER": 298.3557, "MEAN_ANOMALY": 61.6638, "EPHEMERIS_TYPE": 0, "CLASSIFICATION_TYPE": "U", "NORAD_CAT_ID": 66346, "ELEMENT_SET_NO": 999, "REV_AT_EPOCH": 561, "BSTAR": 0.0034196484, "MEAN_MOTION_DOT": 0.00201334, "MEAN_MOTION_DDOT": 0}, "tle": {"line1": "1 66346U 25253AD  25338.23348867  .00201334  00000+0  34196-2 0  9991", "line2": "2 66346  43.0007  34.3655 0006596 298.3557  61.6638 15.49984079  5610"}}, "geometry": {"type": "Point", "coordinates": [164.49880940209658, 34.641556751779426]}}, {"type": "Feature", "properties": {"norad_id": 66347, "name": "STARLINK-35438", "group": "last-30-days", "lat": 32.235869626591246, "lon": 169.75147407941762, "alt_km": 409.4319910323029, "timestamp": "2025-12-04T13:51:59.225473+00:00", "meta": {"OBJECT_NAME": "STARLINK-35438", "OBJECT_ID": "2025-253AE", "EPOCH": "2025-12-04T05:35:09.910176", "MEAN_MOTION": 15.5068304, "ECCENTRICITY": 0.00016217, "INCLINATION": 43.0004, "RA_OF_ASC_NODE": 34.3583, "ARG_OF_PERICENTER": 224.4701, "MEAN_ANOMALY": 135.6029, "EPHEMERIS_TYPE": 0, "CLASSIFICATION_TYPE": "U", "NORAD_CAT_ID": 66347, "ELEMENT_SET_NO": 999, "REV_AT_EPOCH": 561, "BSTAR": 0.0027952955, "MEAN_MOTION_DOT": 0.0016783, "MEAN_MOTION_DDOT": 0}, "tle": {"line1": "1 66347U 25253AE  25338.23275359  .00167830  00000+0  27953-2 0  9992", "line2": "2 66347  43.0004  34.3583 0001621 224.4701 135.6029 15.50683040  5615"}}, "geometry": {"type": "Point", "coordinates": [169.75147407941762, 32.235869626591246]}}, {"type": "Feature", "properties": {"norad_id": 66348, "name": "STARLINK-35849", "group": "last-30-days", "lat": -11.46803904598456, "lon": -53.0534419027149, "alt_km": 395.07093969038397, "timestamp": "2025-12-04T13:51:59.225485+00:00", "meta": {"OBJECT_NAME": "STARLINK-35849", "OBJECT_ID": "2025-254A", "EPOCH": "2025-12-04T08:00:01.999872", "MEAN_MOTION": 15.59338229, "ECCENTRICITY": 0.00012749, "INCLINATION": 53.1594, "RA_OF_ASC_NODE": 316.881, "ARG_OF_PERICENTER": 69.2353, "MEAN_ANOMALY": 344.1505, "EPHEMERIS_TYPE": 0, "CLASSIFICATION_TYPE": "U", "NORAD_CAT_ID": 66348, "ELEMENT_SET_NO": 999, "REV_AT_EPOCH": 557, "BSTAR": -0.028447042, "MEAN_MOTION_DOT": -0.02003824, "MEAN_MOTION_DDOT": 0}, "tle": {"line1": "1 66348U 25254A   25338.33335648 -.02003824  00000+0 -28447-1 0  9997", "line2": "2 66348  53.1594 316.8810 0001274  69.2353 344.1505 15.59338229  5571"}}, "geometry": {"type": "Point", "coordinates": [-53.0534419027149, -11.46803904598456]}}, {"type": "Feature", "properties": {"norad_id": 66349, "name": "STARLINK-35848", "group": "last-30-days", "lat": -9.94992570497146, "lon": -51.86716729391352, "alt_km": 394.90900573641557, "timestamp": "2025-12-04T13:51:59.225496+00:00", "meta": {"OBJECT_NAME": "STARLINK-35848", "OBJECT_ID": "2025-254B", "EPOCH": "2025-12-04T08:00:01.999872", "MEAN_MOTION": 15.59337794, "ECCENTRICITY": 0.00012606, "INCLINATION": 53.1592, "RA_OF_ASC_NODE": 316.8763, "ARG_OF_PERICENTER": 71.4078, "MEAN_ANOMALY": 343.8954, "EPHEMERIS_TYPE": 0, "CLASSIFICATION_TYPE": "U", "NORAD_CAT_ID": 66349, "ELEMENT_SET_NO": 999, "REV_AT_EPOCH": 557, "BSTAR": -0.028441414, "MEAN_MOTION_DOT": -0.02003438, "MEAN_MOTION_DDOT": 0}, "tle": {"line1": "1 66349U 25254B   25338.33335648 -.02003438  00000+0 -28441-1 0  9993", "line2": "2 66349  53.1592 316.8763 0001260  71.4078 343.8954 15.59337794  5571"}}, "geometry": {"type": "Point", "coordinates": [-51.86716729391352, -9.94992570497146]}}, {"type": "Feature", "properties": {"norad_id": 66350, "name": "STARLINK-35829", "group": "last-30-days", "lat": -8.428291480250136, "lon": -50.69161783883317, "alt_km": 394.7259820990639, "timestamp": "2025-12-04T13:51:59.225506+00:00", "meta": {"OBJECT_NAME": "STARLINK-35829", "OBJECT_ID": "2025-254C", "EPOCH": "2025-12-04T08:00:01.999872", "MEAN_MOTION": 15.59338067, "ECCENTRICITY": 0.00012745, "INCLINATION": 53.159, "RA_OF_ASC_NODE": 316.8724, "ARG_OF_PERICENTER": 72.6422, "MEAN_ANOMALY": 344.5773, "EPHEMERIS_TYPE": 0, "CLASSIFICATION_TYPE": "U", "NORAD_CAT_ID": 66350, "ELEMENT_SET_NO": 999, "REV_AT_EPOCH": 557, "BSTAR": -0.028443167, "MEAN_MOTION_DOT": -0.02003575, "MEAN_MOTION_DDOT": 0}, "tle": {"line1": "1 66350U 25254C   25338.33335648 -.02003575  00000+0 -28443-1 0  9999", "line2": "2 66350  53.1590 316.8724 0001274  72.6422 344.5773 15.59338067  5570"}}, "geometry": {"type": "Point", "coordinates": [-50.69161783883317, -8.428291480250136]}}, {"type": "Feature", "properties": {"norad_id": 66351, "name": "STARLINK-35828", "group": "last-30-days", "lat": -6.900916529576221, "lon": -49.52350824454973, "alt_km": 394.560560361655, "timestamp": "2025-12-04T13:51:59.225516+00:00", "meta": {"OBJECT_NAME": "STARLINK-35828", "OBJECT_ID": "2025-254D", "EPOCH": "2025-12-04T08:00:01.999872", "MEAN_MOTION": 15.59341448, "ECCENTRICITY": 0.00011687, "INCLINATION": 53.1592, "RA_OF_ASC_NODE": 316.8685, "ARG_OF_PERICENTER": 75.0979, "MEAN_ANOMALY": 344.0379, "EPHEMERIS_TYPE": 0, "CLASSIFICATION_TYPE": "U", "NORAD_CAT_ID": 66351, "ELEMENT_SET_NO": 999, "REV_AT_EPOCH": 554, "BSTAR": -0.028520716, "MEAN_MOTION_DOT": -0.02008506, "MEAN_MOTION_DDOT": 0}, "tle": {"line1": "1 66351U 25254D   25338.33335648 -.02008506  00000+0 -28521-1 0  9996", "line2": "2 66351  53.1592 316.8685 0001168  75.0979 344.0379 15.59341448  5546"}}, "geometry": {"type": "Point", "coordinates": [-49.52350824454973, -6.900916529576221]}}, {"type": "Feature", "properties": {"norad_id": 66352, "name": "STARLINK-35850", "group": "last-30-days", "lat": -5.373570818946628, "lon": -48.365470921600426, "alt_km": 394.2957042611015, "timestamp": "2025-12-04T13:51:59.225526+00:00", "meta": {"OBJECT_NAME": "STARLINK-35850", "OBJECT_ID": "2025-254E", "EPOCH": "2025-12-04T08:00:01.999872", "MEAN_MOTION": 15.59341692, "ECCENTRICITY": 0.00012487, "INCLINATION": 53.1592, "RA_OF_ASC_NODE": 316.8643, "ARG_OF_PERICENTER": 71.3235, "MEAN_ANOMALY": 349.7281, "EPHEMERIS_TYPE": 0, "CLASSIFICATION_TYPE": "U", "NORAD_CAT_ID": 66352, "ELEMENT_SET_NO": 999, "REV_AT_EPOCH": 552, "BSTAR": -0.028513547, "MEAN_MOTION_DOT": -0.02008138, "MEAN_MOTION_DDOT": 0}, "tle": {"line1": "1 66352U 25254E   25338.33335648 -.02008138  00000+0 -28514-1 0  9990", "line2": "2 66352  53.1592 316.8643 0001248  71.3235 349.7281 15.59341692  5527"}}, "geometry": {"type": "Point", "coordinates": [-48.365470921600426, -5.373570818946628]}}, {"type": "Feature", "properties": {"norad_id": 66353, "name": "STARLINK-35869", "group": "last-30-days", "lat": -3.8426991948964124, "lon": -47.21240340533569, "alt_km": 394.14344973775496, "timestamp": "2025-12-04T13:51:59.225536+00:00", "meta": {"OBJECT_NAME": "STARLINK-35869", "OBJECT_ID": "2025-254F", "EPOCH": "2025-12-04T08:00:01.999872", "MEAN_MOTION": 15.59331228, "ECCENTRICITY": 0.00012987, "INCLINATION": 53.1594, "RA_OF_ASC_NODE": 316.8599, "ARG_OF_PERICENTER": 75.5921, "MEAN_ANOMALY": 347.3834, "EPHEMERIS_TYPE": 0, "CLASSIFICATION_TYPE": "U", "NORAD_CAT_ID": 66353, "ELEMENT_SET_NO": 999, "REV_AT_EPOCH": 557, "BSTAR": -0.028347858, "MEAN_MOTION_DOT": -0.01997252, "MEAN_MOTION_DDOT": 0}, "tle": {"line1": "1 66353U 25254F   25338.33335648 -.01997252  00000+0 -28348-1 0  9999", "line2": "2 66353  53.1594 316.8599 0001298  75.5921 347.3834 15.59331228  5570"}}, "geometry": {"type": "Point", "coordinates": [-47.21240340533569, -3.8426991948964124]}}, {"type": "Feature", "properties": {"norad_id": 66354, "name": "STARLINK-35895", "group": "last-30-days", "lat": 29.007033240189575, "lon": 111.53915721492531, "alt_km": 414.92659698334137, "timestamp": "2025-12-04T13:51:59.225547+00:00", "meta": {"OBJECT_NAME": "STARLINK-35895", "OBJECT_ID": "2025-254G", "EPOCH": "2025-12-04T08:00:01.999872", "MEAN_MOTION": 15.49367927, "ECCENTRICITY": 0.00013811, "INCLINATION": 53.1597, "RA_OF_ASC_NODE": 317.2717, "ARG_OF_PERICENTER": 76.7734, "MEAN_ANOMALY": 141.8237, "EPHEMERIS_TYPE": 0, "CLASSIFICATION_TYPE": "U", "NORAD_CAT_ID": 66354, "ELEMENT_SET_NO": 999, "REV_AT_EPOCH": 557, "BSTAR": -0.0027876371, "MEAN_MOTION_DOT": -0.00152814, "MEAN_MOTION_DDOT": 0}, "tle": {"line1": "1 66354U 25254G   25338.33335648 -.00152814  00000+0 -27876-2 0  9992", "line2": "2 66354  53.1597 317.2717 0001381  76.7734 141.8237 15.49367927  5577"}}, "geometry": {"type": "Point", "coordinates": [111.53915721492531, 29.007033240189575]}}, {"type": "Feature", "properties": {"norad_id": 66355, "name": "STARLINK-35861", "group": "last-30-days", "lat": -0.7777462365470126, "lon": -44.91738870781807, "alt_km": 393.531207707676, "timestamp": "2025-12-04T13:51:59.225558+00:00", "meta": {"OBJECT_NAME": "STARLINK-35861", "OBJECT_ID": "2025-254H", "EPOCH": "2025-12-04T08:00:01.999872", "MEAN_MOTION": 15.59326838, "ECCENTRICITY": 0.00014575, "INCLINATION": 53.1591, "RA_OF_ASC_NODE": 316.8515, "ARG_OF_PERICENTER": 65.8616, "MEAN_ANOMALY": 0.9497, "EPHEMERIS_TYPE": 0, "CLASSIFICATION_TYPE": "U", "NORAD_CAT_ID": 66355, "ELEMENT_SET_NO": 999, "REV_AT_EPOCH": 557, "BSTAR": -0.02826946, "MEAN_MOTION_DOT": -0.01992234, "MEAN_MOTION_DDOT": 0}, "tle": {"line1": "1 66355U 25254H   25338.33335648 -.01992234  00000+0 -28269-1 0  9998", "line2": "2 66355  53.1591 316.8515 0001457  65.8616   0.9497 15.59326838  5575"}}, "geometry": {"type": "Point", "coordinates": [-44.91738870781807, -0.7777462365470126]}}]}